{"type": "FeatureCollection", "features": [ {"type": "Feature", "properties": {"norad_id": 66920, "name": "HULIANWANG DIGUI-110", "group": "last-30-days", "lat": 38.98400062788487, "lon": -145.7901954647564, "alt_km": 879.5568588542201, "timestamp": "2025-12-22T14:45:56.098947+00:00", "meta": {"OBJECT_NAME": "HULIANWANG DIGUI-110", "OBJECT_ID": "2025-285F", "EPOCH": "2025-12-22T07:20:21.482016", "MEAN_MOTION": 14.03683017, "ECCENTRICITY": 0.00055937, "INCLINATION": 50.0107, "RA_OF_ASC_NODE": 78.2566, "ARG_OF_PERICENTER": 321.4923, "MEAN_ANOMALY": 38.5582, "EPHEMERIS_TYPE": 0, "CLASSIFICATION_TYPE": "U", "NORAD_CAT_ID": 66920, "ELEMENT_SET_NO": 999, "REV_AT_EPOCH": 225, "BSTAR": 0.00011901563, "MEAN_MOTION_DOT": 3.7e-07, "MEAN_MOTION_DDOT": 0}, "tle": {"line1": "1 66920U 25285F   25356.30580419  .00000037  00000+0  11902-3 0  9991", "line2": "2 66920  50.0107  78.2566 0005593 321.4923  38.5582 14.03683017  2251"}}, "geometry": {"type": "Point", "coordinates": [-145.7901954647564, 38.98400062788487]}}, {"type": "Feature", "properties": {"norad_id": 66921, "name": "HULIANWANG DIGUI-111", "group": "last-30-days", "lat": 36.57244936785812, "lon": -141.5191102521901, "alt_km": 880.8636445147067, "timestamp": "2025-12-22T14:45:56.098959+00:00", "meta": {"OBJECT_NAME": "HULIANWANG DIGUI-111", "OBJECT_ID": "2025-285G", "EPOCH": "2025-12-22T05:36:38.310336", "MEAN_MOTION": 14.03632541, "ECCENTRICITY": 0.00066798, "INCLINATION": 50.0122, "RA_OF_ASC_NODE": 78.5453, "ARG_OF_PERICENTER": 325.0099, "MEAN_ANOMALY": 35.0365, "EPHEMERIS_TYPE": 0, "CLASSIFICATION_TYPE": "U", "NORAD_CAT_ID": 66921, "ELEMENT_SET_NO": 999, "REV_AT_EPOCH": 224, "BSTAR": 0.00011368906, "MEAN_MOTION_DOT": 2.8e-07, "MEAN_MOTION_DDOT": 0}, "tle": {"line1": "1 66921U 25285G   25356.23377674  .00000028  00000+0  11369-3 0  9998", "line2": "2 66921  50.0122  78.5453 0006679 325.0099  35.0365 14.03632541  2243"}}, "geometry": {"type": "Point", "coordinates": [-141.5191102521901, 36.57244936785812]}}, {"type": "Feature", "properties": {"norad_id": 66922, "name": "HULIANWANG DIGUI-112", "group": "last-30-days", "lat": 33.248747668097245, "lon": -136.4109919124464, "alt_km": 881.0034611762758, "timestamp": "2025-12-22T14:45:56.098969+00:00", "meta": {"OBJECT_NAME": "HULIANWANG DIGUI-112", "OBJECT_ID": "2025-285H", "EPOCH": "2025-12-22T07:17:39.153696", "MEAN_MOTION": 14.03662601, "ECCENTRICITY": 0.00064976, "INCLINATION": 50.0094, "RA_OF_ASC_NODE": 78.2426, "ARG_OF_PERICENTER": 335.9243, "MEAN_ANOMALY": 24.1357, "EPHEMERIS_TYPE": 0, "CLASSIFICATION_TYPE": "U", "NORAD_CAT_ID": 66922, "ELEMENT_SET_NO": 999, "REV_AT_EPOCH": 225, "BSTAR": 0.00012844983, "MEAN_MOTION_DOT": 5.2e-07, "MEAN_MOTION_DDOT": 0}, "tle": {"line1": "1 66922U 25285H   25356.30392539  .00000052  00000+0  12845-3 0  9991", "line2": "2 66922  50.0094  78.2426 0006497 335.9243  24.1357 14.03662601  2259"}}, "geometry": {"type": "Point", "coordinates": [-136.4109919124464, 33.248747668097245]}}, {"type": "Feature", "properties": {"norad_id": 66923, "name": "HULIANWANG DIGUI-113", "group": "last-30-days", "lat": 29.353807046786745, "lon": -131.20240189683895, "alt_km": 880.7803554920383, "timestamp": "2025-12-22T14:45:56.098979+00:00", "meta": {"OBJECT_NAME": "HULIANWANG DIGUI-113", "OBJECT_ID": "2025-285J", "EPOCH": "2025-12-22T07:15:58.595328", "MEAN_MOTION": 14.03700472, "ECCENTRICITY": 0.0005114, "INCLINATION": 50.0094, "RA_OF_ASC_NODE": 78.2381, "ARG_OF_PERICENTER": 330.4382, "MEAN_ANOMALY": 29.6233, "EPHEMERIS_TYPE": 0, "CLASSIFICATION_TYPE": "U", "NORAD_CAT_ID": 66923, "ELEMENT_SET_NO": 999, "REV_AT_EPOCH": 225, "BSTAR": 0.00011561489, "MEAN_MOTION_DOT": 3.1e-07, "MEAN_MOTION_DDOT": 0}, "tle": {"line1": "1 66923U 25285J   25356.30276152  .00000031  00000+0  11561-3 0  9995", "line2": "2 66923  50.0094  78.2381 0005114 330.4382  29.6233 14.03700472  2251"}}, "geometry": {"type": "Point", "coordinates": [-131.20240189683895, 29.353807046786745]}}, {"type": "Feature", "properties": {"norad_id": 66924, "name": "CZ-8A R/B", "group": "last-30-days", "lat": 1.1857420430972145, "lon": -106.87942975657106, "alt_km": 721.6111642741371, "timestamp": "2025-12-22T14:45:56.098992+00:00", "meta": {"OBJECT_NAME": "CZ-8A R/B", "OBJECT_ID": "2025-285K", "EPOCH": "2025-12-21T16:08:52.251936", "MEAN_MOTION": 14.30505087, "ECCENTRICITY": 0.01192587, "INCLINATION": 50.008, "RA_OF_ASC_NODE": 78.1289, "ARG_OF_PERICENTER": 138.2364, "MEAN_ANOMALY": 222.7729, "EPHEMERIS_TYPE": 0, "CLASSIFICATION_TYPE": "U", "NORAD_CAT_ID": 66924, "ELEMENT_SET_NO": 999, "REV_AT_EPOCH": 220, "BSTAR": 4.9813091e-05, "MEAN_MOTION_DOT": -2.5e-07, "MEAN_MOTION_DDOT": 0}, "tle": {"line1": "1 66924U 25285K   25355.67282699 -.00000025  00000+0  49813-4 0  9994", "line2": "2 66924  50.0080  78.1289 0119258 138.2364 222.7729 14.30505087  2208"}}, "geometry": {"type": "Point", "coordinates": [-106.87942975657106, 1.1857420430972145]}}, {"type": "Feature", "properties": {"norad_id": 66925, "name": "STARLINK-35945", "group": "last-30-days", "lat": -23.317160254051768, "lon": -17.87714818551668, "alt_km": 351.5743128662998, "timestamp": "2025-12-22T14:45:56.099005+00:00", "meta": {"OBJECT_NAME": "STARLINK-35945", "OBJECT_ID": "2025-286A", "EPOCH": "2025-12-22T06:00:02.000160", "MEAN_MOTION": 15.74409521, "ECCENTRICITY": 0.00013946, "INCLINATION": 53.159, "RA_OF_ASC_NODE": 2.79, "ARG_OF_PERICENTER": 79.1898, "MEAN_ANOMALY": 340.4539, "EPHEMERIS_TYPE": 0, "CLASSIFICATION_TYPE": "U", "NORAD_CAT_ID": 66925, "ELEMENT_SET_NO": 999, "REV_AT_EPOCH": 352, "BSTAR": -0.0049898478, "MEAN_MOTION_DOT": -0.00681715, "MEAN_MOTION_DDOT": 0}, "tle": {"line1": "1 66925U 25286A   25356.25002315 -.00681715  00000+0 -49898-2 0  9999", "line2": "2 66925  53.1590   2.7900 0001394  79.1898 340.4539 15.74409521  3526"}}, "geometry": {"type": "Point", "coordinates": [-17.87714818551668, -23.317160254051768]}}, {"type": "Feature", "properties": {"norad_id": 66926, "name": "STARLINK-35942", "group": "last-30-days", "lat": -21.540407438864246, "lon": -16.242669204002116, "alt_km": 356.2062552101088, "timestamp": "2025-12-22T14:45:56.099015+00:00", "meta": {"OBJECT_NAME": "STARLINK-35942", "OBJECT_ID": "2025-286B", "EPOCH": "2025-12-22T06:00:02.000160", "MEAN_MOTION": 15.73846974, "ECCENTRICITY": 8.818e-05, "INCLINATION": 53.159, "RA_OF_ASC_NODE": 2.7815, "ARG_OF_PERICENTER": 102.6251, "MEAN_ANOMALY": 320.8244, "EPHEMERIS_TYPE": 0, "CLASSIFICATION_TYPE": "U", "NORAD_CAT_ID": 66926, "ELEMENT_SET_NO": 999, "REV_AT_EPOCH": 352, "BSTAR": -0.016028201, "MEAN_MOTION_DOT": -0.02038292, "MEAN_MOTION_DDOT": 0}, "tle": {"line1": "1 66926U 25286B   25356.25002315 -.02038292  00000+0 -16028-1 0  9996", "line2": "2 66926  53.1590   2.7815 0000881 102.6251 320.8244 15.73846974  3528"}}, "geometry": {"type": "Point", "coordinates": [-16.242669204002116, -21.540407438864246]}}, {"type": "Feature", "properties": {"norad_id": 66927, "name": "STARLINK-35943", "group": "last-30-days", "lat": -20.07291259037572, "lon": -14.932709326012652, "alt_km": 356.0963822235444, "timestamp": "2025-12-22T14:45:56.099025+00:00", "meta": {"OBJECT_NAME": "STARLINK-35943", "OBJECT_ID": "2025-286C", "EPOCH": "2025-12-22T06:00:02.000160", "MEAN_MOTION": 15.73832677, "ECCENTRICITY": 0.0001025, "INCLINATION": 53.159, "RA_OF_ASC_NODE": 2.7777, "ARG_OF_PERICENTER": 87.8621, "MEAN_ANOMALY": 337.5111, "EPHEMERIS_TYPE": 0, "CLASSIFICATION_TYPE": "U", "NORAD_CAT_ID": 66927, "ELEMENT_SET_NO": 999, "REV_AT_EPOCH": 352, "BSTAR": -0.015869968, "MEAN_MOTION_DOT": -0.0201958, "MEAN_MOTION_DDOT": 0}, "tle": {"line1": "1 66927U 25286C   25356.25002315 -.02019580  00000+0 -15870-1 0  9990", "line2": "2 66927  53.1590   2.7777 0001025  87.8621 337.5111 15.73832677  3525"}}, "geometry": {"type": "Point", "coordinates": [-14.932709326012652, -20.07291259037572]}}, {"type": "Feature", "properties": {"norad_id": 66928, "name": "STARLINK-35944", "group": "last-30-days", "lat": -23.000223323046256, "lon": -17.58162558774816, "alt_km": 356.2868316881222, "timestamp": "2025-12-22T14:45:56.099037+00:00", "meta": {"OBJECT_NAME": "STARLINK-35944", "OBJECT_ID": "2025-286D", "EPOCH": "2025-12-22T06:00:02.000160", "MEAN_MOTION": 15.73851676, "ECCENTRICITY": 7.293e-05, "INCLINATION": 53.1591, "RA_OF_ASC_NODE": 2.7856, "ARG_OF_PERICENTER": 106.0325, "MEAN_ANOMALY": 315.49, "EPHEMERIS_TYPE": 0, "CLASSIFICATION_TYPE": "U", "NORAD_CAT_ID": 66928, "ELEMENT_SET_NO": 999, "REV_AT_EPOCH": 352, "BSTAR": -0.016018138, "MEAN_MOTION_DOT": -0.0203741, "MEAN_MOTION_DDOT": 0}, "tle": {"line1": "1 66928U 25286D   25356.25002315 -.02037410  00000+0 -16018-1 0  9998", "line2": "2 66928  53.1591   2.7856 0000729 106.0325 315.4900 15.73851676  3521"}}, "geometry": {"type": "Point", "coordinates": [-17.58162558774816, -23.000223323046256]}}, {"type": "Feature", "properties": {"norad_id": 66929, "name": "STARLINK-36169", "group": "last-30-days", "lat": -18.59495168970873, "lon": -13.646967383619147, "alt_km": 355.69087263894016, "timestamp": "2025-12-22T14:45:56.099047+00:00", "meta": {"OBJECT_NAME": "STARLINK-36169", "OBJECT_ID": "2025-286E", "EPOCH": "2025-12-22T06:00:02.000160", "MEAN_MOTION": 15.73834767, "ECCENTRICITY": 9.393e-05, "INCLINATION": 53.1589, "RA_OF_ASC_NODE": 2.7734, "ARG_OF_PERICENTER": 81.5646, "MEAN_ANOMALY": 345.7213, "EPHEMERIS_TYPE": 0, "CLASSIFICATION_TYPE": "U", "NORAD_CAT_ID": 66929, "ELEMENT_SET_NO": 999, "REV_AT_EPOCH": 352, "BSTAR": -0.015855158, "MEAN_MOTION_DOT": -0.02018011, "MEAN_MOTION_DDOT": 0}, "tle": {"line1": "1 66929U 25286E   25356.25002315 -.02018011  00000+0 -15855-1 0  9993", "line2": "2 66929  53.1589   2.7734 0000939  81.5646 345.7213 15.73834767  3525"}}, "geometry": {"type": "Point", "coordinates": [-13.646967383619147, -18.59495168970873]}}]}